NUSAT-1 (FRESCO)        
1 41557U 16033B   23001.11889699  .00024649  00000+0  59202-3 0  9997
2 41557  97.3884 104.9649 0010339  32.4969  65.4091 15.41285251367752
BEESAT-4                
1 41619U 16040W   23001.08009092  .00029357  00000+0  77567-3 0  9996
2 41619  97.1905  51.9541 0008934 120.0159 240.1974 15.38348539351028
CAS-2T & KS-1Q          
1 41847U 16066G   22365.70880922  .00000947  00000+0  15175-3 0  9998
2 41847  98.5281  69.9612 0361922 339.7325  18.9799 14.38986555322719
NAYIF-1 (EO-88)         
1 42017U 17008BX  23001.45240141  .00038575  00000+0  85807-3 0  9995
2 42017  97.2445  70.4348 0002647 248.1247 111.9719 15.43548239327511
ZHUHAI-1 02 (CAS-4B)    
1 42759U 17034B   23001.14889434  .00006908  00000+0  38831-3 0  9997
2 42759  43.0182 321.7206 0008773 100.5863  16.7312 15.13746658306292
ZHUHAI-1 01 (CAS-4A)    
1 42761U 17034D   23001.24350891  .00006911  00000+0  38731-3 0  9994
2 42761  43.0183 319.8342 0009095 101.4392  40.1713 15.13850085306319
MAX VALIER SAT          
1 42778U 17036P   22365.67961585  .00016248  00000+0  54289-3 0  9991
2 42778  97.1823  40.1886 0009557 354.2935   5.8196 15.31046448307032
RADFXSAT (FOX-1B)       
1 43017U 17073E   22365.64025599  .00008038  00000+0  59209-3 0  9997
2 43017  97.6525 251.6924 0241218 261.2159  96.1672 14.83176136276325
FOX-1D (AO-92)          
1 43137U 18004AC  22365.75022520  .00019396  00000+0  58467-3 0  9992
2 43137  97.3505  79.4984 0007682  30.7739 329.3953 15.34325685276531
DIWATA-2B               
1 43678U 18084H   23001.31256664  .00001035  00000+0  10631-3 0  9990
2 43678  97.9959 142.2967 0009856   1.2152 358.9076 14.92595672227366
ES'HAIL 2               
1 43700U 18090A   23001.34980128  .00000153  00000+0  00000+0 0  9990
2 43700   0.0244  26.1005 0001740 286.1339 300.2058  1.00270822 15257
FOX-1CLIFF (AO-95)      
1 43770U 18099N   23001.11763730  .00004715  00000+0  40782-3 0  9992
2 43770  97.5978  67.2043 0012861 338.2790  21.7885 14.97580899222580
ITASAT 1                
1 43786U 18099AE  22365.76630986  .00003473  00000+0  30180-3 0  9999
2 43786  97.6007  67.8752 0014038 329.7920  30.2492 14.97569049222574
JY1SAT (JO-97)          
1 43803U 18099AX  22365.70416183  .00004686  00000+0  39756-3 0  9999
2 43803  97.5965  67.6552 0013728 327.3671  32.6702 14.98328550222597
UWE-4                   
1 43880U 18111E   22365.69036121  .00006455  00000+0  52907-3 0  9996
2 43880  97.6594 268.5533 0013118  31.9886 328.2131 14.99534566219246
NEXUS (FO-99)           
1 43937U 19003F   23001.30727952  .00024835  00000+0  68704-3 0  9999
2 43937  97.1110  32.4383 0018211 157.9393 202.2640 15.36826631220292
PSAT2 (NO-104)          
1 44354U 19036R   22365.91853596  .00232943  96881-5  85455-3 0  9993
2 44354  28.5165 220.7680 0116007  82.4779 278.8992 15.76954885195419
JAISAT-1                
1 44419U 19038F   22365.66519595  .00014843  00000+0  66274-3 0  9994
2 44419  97.6598 338.1431 0017930 162.0136 198.1737 15.21320754192996
DUCHIFAT-3              
1 44854U 19089C   23001.18930978  .00005721  00000+0  42483-3 0  9991
2 44854  36.9658   6.7811 0006710  22.3687  69.1009 15.02793067167671
CAS-6 (TIANQIN 1)       
1 44881U 19093C   22365.88536397  .00000815  00000+0  10922-3 0  9994
2 44881  97.8783  82.1278 0013489 263.4009  96.5657 14.82001785164012
RS-44 & BREEZE-KM R/B   
1 44909U 19096E   22365.67865788  .00000002  00000+0 -31605-4 0  9995
2 44909  82.5217  99.2571 0216984 218.3658 140.1841 12.79717385140733
ORBITAL FACTORY 2 (OF-2)
1 45113U 19071C   22365.62619725  .00087922  00000+0  97016-3 0  9991
2 45113  51.6317 159.8527 0009136 193.9089 166.1655 15.62286609163997
HUSKYSAT-1 (HO-107)     
1 45119U 19071J   22365.73890200  .00069564  00000+0  89018-3 0  9993
2 45119  51.6321 162.0708 0009186 186.3066 173.7813 15.58514477163960
BY70-2                  
1 45857U 20042B   23001.16750863  .00010998  00000+0  13589-2 0  9993
2 45857  97.9416  81.3576 0010048 187.8432 172.2726 14.82946528134726
SALSAT                  
1 46495U 20068K   22365.56647809  .00004154  00000+0  29175-3 0  9997
2 46495  97.7522 307.2679 0015353 336.1769  23.8745 15.05605034123833
BY70-3                  
1 46839U 20079N   23001.14998631  .00063058  00000+0  91625-3 0  9992
2 46839  97.1761  76.8923 0003197 350.8775  94.7031 15.55582933120815
RADFXSAT-2 (AO-109)     
1 47311U 21002C   23001.47139822  .00016287  00000+0  56159-3 0  9995
2 47311  60.6843 334.8042 0038933  91.4351 269.1200 15.29481334108715
UVSQ-SAT                
1 47438U 21006AB  23001.11329584  .00011224  00000+0  54619-3 0  9991
2 47438  97.4123  61.1018 0010082 313.5698  46.4698 15.18510122107244
DIY-1 (ARDUIQUBE)       
1 47963U 21022AH  22365.97011839  .00036759  00000+0  15866-2 0  9999
2 47963  97.5167 265.8455 0013843 159.0911 201.0894 15.22336663 96899
XW-3 (CAS-9)            
1 50466U 21131B   23001.33394984  .00000378  00000+0  13795-3 0  9993
2 50466  98.5667  83.3521 0003512 277.2108  82.8680 14.38608095 53367
TEVEL-3                 
1 50988U 22002E   23001.27026034  .00011746  00000+0  58376-3 0  9996
2 50988  97.4591  70.0803 0010480  97.3702 336.6790 15.17758448 53389
TEVEL-8                 
1 50989U 22002F   23001.14757997  .00011803  00000+0  58762-3 0  9995
2 50989  97.4602  69.9997 0010224  95.8379 322.1313 15.17699283 53363
TEVEL-5                 
1 50998U 22002Q   23001.15447082  .00012328  00000+0  60236-3 0  9999
2 50998  97.4578  70.1911 0011864  94.7764 317.2734 15.18325976 53382
TEVEL-6                 
1 50999U 22002R   23001.15363698  .00012322  00000+0  60201-3 0  9996
2 50999  97.4577  70.1865 0011660  93.2436 319.8709 15.18333046 53381
TEVEL-1                 
1 51013U 22002AF  23001.14060088  .00011722  00000+0  58314-3 0  9995
2 51013  97.4585  69.9161 0010413  97.8347 316.7570 15.17725056 53364
TEVEL-7                 
1 51062U 22002CG  23001.14939586  .00011904  00000+0  59256-3 0  9995
2 51062  97.4598  69.9813 0010333  96.2124 320.4849 15.17700883 53365
TEVEL-4                 
1 51063U 22002CH  23001.15204929  .00011864  00000+0  59088-3 0  9991
2 51063  97.4597  69.9768 0010453  97.3360 322.5094 15.17680455 53368
TEVEL-2                 
1 51069U 22002CP  23001.27289727  .00011858  00000+0  58938-3 0  9995
2 51069  97.4581  70.0619 0010302  97.1732 341.3166 15.17755999 53386
GREENCUBE               
1 53106U 22080B   22354.08419093 -.00000003  00000+0  00000+0 0  9999
2 53106  70.1702  21.9397 0008914 226.9685 182.2049  6.42557326 10248
YUZGU 9 (RS3S)          
1 53308U 98067TT  23001.23612956  .00265617  00000+0  14175-2 0  9995
2 53308  51.6338  63.3037 0005968 344.9395  15.1427 15.79057984 25602
YUZGU 7 (RS1S)          
1 53309U 98067TU  23001.19815103  .00291399  00000+0  14581-2 0  9997
2 53309  51.6320  63.0366 0006579 347.0580  13.0252 15.80398731 25552
YUZGU 11 (RS5S)         
1 53310U 98067TV  23001.23358176  .00270884  00000+0  14315-2 0  9997
2 53310  51.6349  63.2872 0006034 343.0515  17.0284 15.79259836 25581
YUZGU 12 (RS6S)         
1 53311U 98067TW  23001.22062433  .00322992  00000+0  15022-2 0  9999
2 53311  51.6308  62.4297 0006350 350.8822   9.2064 15.81902313 25618
TSIOLKOVSKY-RYAZAN 1 (*)
1 53312U 98067TX  23001.20773939  .00280621  00000+0  14410-2 0  9990
2 53312  51.6306  63.1089 0006812 344.7321  15.3474 15.79859029 25540
TSIOLKOVSKY-RYAZAN 2 (*)
1 53313U 98067TY  23001.20093406  .00288968  00000+0  14735-2 0  9997
2 53313  51.6333  63.0680 0006589 348.8648  11.2206 15.79991982 25593
YUZGU 10 (RS4S)         
1 53321U 98067TZ  23001.21930068  .00276059  00000+0  14416-2 0  9995
2 53321  51.6343  63.1891 0006045 344.5954  15.4863 15.79507841 25590
RS29S (SXC3-2110 CYCLO*)
1 53373U 22096D   23001.50056802  .00017786  00000+0  64902-3 0  9994
2 53373  97.4277 267.1184 0003315  54.6880  67.9786 15.28196308 22146
RS32S (SXC3-212 MONITO*)
1 53374U 22096E   23001.47891747  .00015606  00000+0  57051-3 0  9992
2 53374  97.4278 267.1080 0002899  57.5869 350.8070 15.28164752 22146
RS34S (SXC3-218 KUZBAS*)
1 53375U 22096F   23001.31699273  .00013923  00000+0  51734-3 0  9998
2 53375  97.4279 266.9053 0003040  49.8293  75.0720 15.27653846 22110
RS23S (SXC3-21 UTMN)    
1 53376U 22096G   23001.11835672  .00014530  00000+0  53783-3 0  9993
2 53376  97.4276 266.7187 0002805  56.9601  82.9253 15.27770704 22081
RS28S (SXC3-214 MIET-A*)
1 53377U 22096H   23001.44284381  .00013926  00000+0  51721-3 0  9993
2 53377  97.4283 267.0423 0003022  51.4664  66.2303 15.27670303 22139
RS26S (KAI-1)           
1 53378U 22096J   23001.19673159  .00012147  00000+0  45549-3 0  9996
2 53378  97.4280 266.7723 0002760  43.5576 109.7331 15.27384674 22090
RS19S (SXC3-219 ISOI)   
1 53381U 22096M   23001.26659939  .00014170  00000+0  51789-3 0  9999
2 53381  97.4269 266.9677 0002748 321.3997 156.6419 15.28196914 22111
RS21S (CUBESX-HSE-2)    
1 53383U 22096P   23001.45290927  .00014670  00000+0  53472-3 0  9996
2 53383  97.4281 267.1666 0002948 321.5130 124.7176 15.28277163 22146
RS30S (SXC3-217 SIREN)  
1 53384U 22096Q   23001.20980792  .00013409  00000+0  49279-3 0  9995
2 53384  97.4273 266.9071 0002764 317.9763 193.5035 15.28026031 22102
RS20S (GEOSCAN-EDELVEIS)
1 53385U 22096R   23001.28078203  .00018319  00000+0  64812-3 0  9994
2 53385  97.4277 267.0998 0002870 317.0681 159.3155 15.29204900 22157
RS33S (SXC3-215 VIZARD) 
1 53386U 22096S   23001.23648678  .00021469  00000+0  73686-3 0  9998
2 53386  97.4272 267.1726 0003877 317.5407 196.9990 15.30159615 22149
CAS-5A (FO-118)         
1 54684U 22167C   23001.29875054  .00008065  00000+0  51181-3 0  9998
2 54684  97.5381 140.8929 0014432 184.5881  10.9578 15.09063396  3469
CAS-10                  
1 54816U 21035C   23001.25360957  .00122615  00000+0  12947-2 0  9999
2 54816  41.4781  93.0220 0006827 285.3678  74.7943 15.63004841  2096
